NORAD_CAT_ID,OBJECT_NAME,OBJECT_TYPE,EPOCH,MEAN_MOTION,ECCENTRICITY,INCLINATION,RA_OF_ASC_NODE,ARG_OF_PERICENTER,MEAN_ANOMALY,BSTAR,MEAN_MOTION_DOT,MEAN_MOTION_DDOT,TLE_LINE0,TLE_LINE1,TLE_LINE2,SEMIMAJOR_AXIS,PERIOD,APOGEE,PERIGEE,DECAYED
53871.0,STARLINK-4740,PAYLOAD,2023-06-12 10:56:37,15.08841301,0.0001197,53.2177,78.5808,76.3315,283.7811,-8.1681e-05,-1.588e-05,0.0,0 STARLINK-4740,1 53871U 22114BF  23163.45598551 -.00001588  00000-0 -81681-4 0  9993,2 53871  53.2177  78.5808 0001197  76.3315 283.7811 15.08841301 42243,6917.876,95.437,540.569,538.913,0.0
53871.0,STARLINK-4740,PAYLOAD,2023-06-12 14:07:23,15.08824987,0.0001346,53.2178,77.989,75.9037,284.2105,5.7588e-05,6.28e-06,0.0,0 STARLINK-4740,1 53871U 22114BF  23163.58847193  .00000628  00000-0  57588-4 0  9997,2 53871  53.2178  77.9890 0001346  75.9037 284.2105 15.08824987 41725,6917.926,95.439,540.722,538.86,0.0
53871.0,STARLINK-4740,PAYLOAD,2023-06-13 01:15:06,15.08824765,0.0001385,53.2178,75.9071,77.3298,282.7849,5.8569e-05,6.44e-06,0.0,0 STARLINK-4740,1 53871U 22114BF  23164.05215598  .00000644  00000-0  58569-4 0  9996,2 53871  53.2178  75.9071 0001385  77.3298 282.7849 15.08824765 42332,6917.927,95.439,540.75,538.834,0.0
53871.0,STARLINK-4740,PAYLOAD,2023-06-13 20:19:43,15.08836638,0.0001262,53.2176,72.3371,91.9042,268.2095,-2.5885e-05,-7e-06,0.0,0 STARLINK-4740,1 53871U 22114BF  23164.84703452 -.00000700  00000-0 -25885-4 0  9994,2 53871  53.2176  72.3371 0001262  91.9042 268.2095 15.08836638 42454,6917.891,95.438,540.629,538.883,0.0
53871.0,STARLINK-4740,PAYLOAD,2023-06-14 01:05:52,15.08840803,0.0001217,53.2176,71.4452,92.7083,267.4048,7.4895e-06,-1.69e-06,0.0,0 STARLINK-4740,1 53871U 22114BF  23165.04575082 -.00000169  00000-0  74895-5 0  9997,2 53871  53.2176  71.4452 0001217  92.7083 267.4048 15.08840803 41949,6917.878,95.438,540.585,538.901,0.0
53871.0,STARLINK-4740,PAYLOAD,2023-06-14 20:10:31,15.08830143,0.0001206,53.2176,67.8774,98.031,262.0819,3.1226e-05,2.09e-06,0.0,0 STARLINK-4740,1 53871U 22114BF  23165.84063856  .00000209  00000-0  31226-4 0  9990,2 53871  53.2176  67.8774 0001206  98.0310 262.0819 15.08830143 42062,6917.911,95.438,540.61,538.941,0.0
53871.0,STARLINK-4740,PAYLOAD,2023-06-16 00:47:27,15.08845222,0.0001218,53.2176,62.5249,89.9028,270.2104,4.7825e-05,4.73e-06,0.0,0 STARLINK-4740,1 53871U 22114BF  23167.03295145  .00000473  00000-0  47825-4 0  9996,2 53871  53.2176  62.5249 0001218  89.9028 270.2104 15.08845222 42241,6917.864,95.437,540.572,538.887,0.0
53871.0,STARLINK-4740,PAYLOAD,2023-06-16 10:19:45,15.08844087,0.0001206,53.2182,60.7392,93.4072,266.7058,1.8035e-06,-2.59e-06,0.0,0 STARLINK-4740,1 53871U 22114BF  23167.43039219 -.00000259  00000-0  18035-5 0  9993,2 53871  53.2182  60.7392 0001206  93.4072 266.7058 15.08844087 42845,6917.868,95.437,540.567,538.899,0.0
53871.0,STARLINK-4740,PAYLOAD,2023-06-16 16:41:18,15.08813171,0.0001339,53.2186,59.5484,97.2649,262.8496,0.00040432,6.148e-05,0.0,0 STARLINK-4740,1 53871U 22114BF  23167.69535160  .00006148  00000-0  40432-3 0  9993,2 53871  53.2186  59.5484 0001339  97.2649 262.8496 15.08813171 42883,6917.962,95.439,540.754,538.901,0.0
53871.0,STARLINK-4740,PAYLOAD,2023-06-17 10:10:32,15.08845264,0.0001231,53.2179,56.2808,79.2066,280.9065,-3.3616e-05,-8.23e-06,0.0,0 STARLINK-4740,1 53871U 22114BF  23168.42399156 -.00000823  00000-0 -33616-4 0  9991,2 53871  53.2179  56.2808 0001231  79.2066 280.9065 15.08845264 42457,6917.864,95.437,540.581,538.878,0.0
53871.0,STARLINK-4740,PAYLOAD,2023-06-17 11:45:56,15.08842809,0.0001253,53.2178,55.9822,100.4103,259.703,-5.328e-05,-1.136e-05,0.0,0 STARLINK-4740,1 53871U 22114BF  23168.49023337 -.00001136  00000-0 -53280-4 0  9990,2 53871  53.2178  55.9822 0001253 100.4103 259.7030 15.08842809 43001,6917.872,95.437,540.604,538.87,0.0
53871.0,STARLINK-4740,PAYLOAD,2023-06-17 16:32:06,15.08826257,0.0001152,53.2182,55.0898,101.7184,258.3937,-0.00018971,-3.305e-05,0.0,0 STARLINK-4740,1 53871U 22114BF  23168.68896815 -.00003305  00000-0 -18971-3 0  9997,2 53871  53.2182  55.0898 0001152 101.7184 258.3937 15.08826257 42493,6917.922,95.438,540.584,538.99,0.0
53871.0,STARLINK-4740,PAYLOAD,2023-06-17 18:07:30,15.08825371,0.0001139,53.2181,54.7936,94.3371,265.7751,-0.00019088,-3.323e-05,0.0,0 STARLINK-4740,1 53871U 22114BF  23168.75520944 -.00003323  00000-0 -19088-3 0  9992,2 53871  53.2181  54.7936 0001139  94.3371 265.7751 15.08825371 43045,6917.925,95.438,540.578,539.002,0.0
53871.0,STARLINK-4740,PAYLOAD,2023-06-17 22:53:39,15.08827048,0.0001123,53.2182,53.9009,99.8929,260.219,-0.00016682,-2.941e-05,0.0,0 STARLINK-4740,1 53871U 22114BF  23168.95392849 -.00002941  00000-0 -16682-3 0  9997,2 53871  53.2182  53.9009 0001123  99.8929 260.2190 15.08827048 43073,6917.92,95.438,540.562,539.008,0.0
53871.0,STARLINK-4740,PAYLOAD,2023-06-18 19:33:39,15.0884207,0.0001173,53.218,50.0348,99.303,260.8095,-2.3025e-05,-6.54e-06,0.0,0 STARLINK-4740,1 53871U 22114BF  23169.81503567 -.00000654  00000-0 -23025-4 0  9993,2 53871  53.2180  50.0348 0001173  99.3030 260.8095 15.08842070 43205,6917.874,95.437,540.551,538.928,0.0
53871.0,STARLINK-4740,PAYLOAD,2023-06-19 01:55:11,15.08845535,0.000117,53.2181,48.8452,99.7058,260.4066,-3.8534e-05,-9.01e-06,0.0,0 STARLINK-4740,1 53871U 22114BF  23170.07999377 -.00000901  00000-0 -38534-4 0  9997,2 53871  53.2181  48.8452 0001170  99.7058 260.4066 15.08845535 42705,6917.863,95.437,540.538,538.919,0.0
53871.0,STARLINK-4740,PAYLOAD,2023-06-19 19:24:26,15.08825331,0.0001139,53.2181,45.5739,104.3082,255.8037,0.00011355,1.519e-05,0.0,0 STARLINK-4740,1 53871U 22114BF  23170.80864252  .00001519  00000-0  11355-3 0  9996,2 53871  53.2181  45.5739 0001139 104.3082 255.8037 15.08825331 43352,6917.925,95.438,540.578,539.002,0.0
53871.0,STARLINK-4740,PAYLOAD,2023-06-20 01:45:58,15.08834066,0.0001194,53.2185,44.3838,91.8342,268.2787,0.00012357,1.679e-05,0.0,0 STARLINK-4740,1 53871U 22114BF  23171.07359856  .00001679  00000-0  12357-3 0  9995,2 53871  53.2185  44.3838 0001194  91.8342 268.2787 15.08834066 42852,6917.899,95.438,540.59,538.938,0.0
53871.0,STARLINK-4740,PAYLOAD,2023-06-20 08:07:31,15.08836469,9.91e-05,53.2192,43.194,91.9835,268.127,5.6318e-05,6.09e-06,0.0,0 STARLINK-4740,1 53871U 22114BF  23171.33855902  .00000609  00000-0  56318-4 0  9995,2 53871  53.2192  43.1940 0000991  91.9835 268.1270 15.08836469 43433,6917.891,95.438,540.442,539.071,0.0
53871.0,STARLINK-4740,PAYLOAD,2023-06-20 20:50:36,15.08841871,0.0001115,53.2179,40.8166,97.7942,262.3177,-6.0989e-05,-1.258e-05,0.0,0 STARLINK-4740,1 53871U 22114BF  23171.86848200 -.00001258  00000-0 -60989-4 0  9998,2 53871  53.2179  40.8166 0001115  97.7942 262.3177 15.08841871 43518,6917.875,95.437,540.511,538.968,0.0
53871.0,STARLINK-4740,PAYLOAD,2023-06-21 01:36:45,15.08846098,0.0001133,53.2181,39.9241,100.5336,259.5784,-3.0604e-05,-7.75e-06,0.0,0 STARLINK-4740,1 53871U 22114BF  23172.06719764 -.00000775  00000-0 -30604-4 0  9997,2 53871  53.2181  39.9241 0001133 100.5336 259.5784 15.08846098 43545,6917.862,95.437,540.511,538.943,0.0
53871.0,STARLINK-4740,PAYLOAD,2023-06-21 19:06:01,15.08836767,0.0001077,53.2178,36.6533,96.0508,264.0607,-4.7105e-05,-1.037e-05,0.0,0 STARLINK-4740,1 53871U 22114BF  23172.79584639 -.00001037  00000-0 -47105-4 0  9994,2 53871  53.2178  36.6533 0001077  96.0508 264.0607 15.08836767 43116,6917.89,95.438,540.5,539.01,0.0
53871.0,STARLINK-4740,PAYLOAD,2023-06-21 23:52:09,15.08892833,8.61e-05,53.2188,35.7573,102.7489,257.36,-0.00065536,-0.00010718,0.0,0 STARLINK-4740,1 53871U 22114BF  23172.99455411 -.00010718  00000-0 -65536-3 0  9994,2 53871  53.2188  35.7573 0000861 102.7489 257.3600 15.08892833 43141,6917.719,95.434,540.18,538.988,0.0
53871.0,STARLINK-4740,PAYLOAD,2023-06-22 07:49:06,15.08838568,0.0001153,53.218,34.2746,87.3902,272.7222,-9.1455e-07,-3.02e-06,0.0,0 STARLINK-4740,1 53871U 22114BF  23173.32576433 -.00000302  00000-0 -91455-6 0  9990,2 53871  53.2180  34.2746 0001153  87.3902 272.7222 15.08838568 43193,6917.885,95.438,540.547,538.952,0.0
53871.0,STARLINK-4740,PAYLOAD,2023-06-23 01:18:19,15.08848047,0.0001198,53.2182,31.0023,92.6795,267.4334,7.7481e-05,9.46e-06,0.0,0 STARLINK-4740,1 53871U 22114BF  23174.05439518  .00000946  00000-0  77481-4 0  9996,2 53871  53.2182  31.0023 0001198  92.6795 267.4334 15.08848047 43307,6917.856,95.437,540.55,538.892,0.0
53871.0,STARLINK-4740,PAYLOAD,2023-06-23 07:39:53,15.08835883,0.00012,53.2184,29.8101,107.6727,252.4396,2.9312e-05,1.79e-06,0.0,0 STARLINK-4740,1 53871U 22114BF  23174.31936370  .00000179  00000-0  29312-4 0  9991,2 53871  53.2184  29.8101 0001200 107.6727 252.4396 15.08835883 43347,6917.893,95.438,540.588,538.928,0.0
53871.0,STARLINK-4740,PAYLOAD,2023-06-24 23:24:31,15.08846088,0.0001112,53.2176,22.3787,93.3301,266.7818,-4.2774e-05,-9.69e-06,0.0,0 STARLINK-4740,1 53871U 22114BF  23175.97536215 -.00000969  00000-0 -42774-4 0  9994,2 53871  53.2176  22.3787 0001112  93.3301 266.7818 15.08846088 43590,6917.862,95.437,540.496,538.958,0.0
53871.0,STARLINK-4740,PAYLOAD,2023-06-25 16:53:46,15.0883503,0.0001105,53.2169,19.1095,81.8281,278.2836,3.0878e-05,2.04e-06,0.0,0 STARLINK-4740,1 53871U 22114BF  23176.70400636  .00000204  00000-0  30878-4 0  9995,2 53871  53.2169  19.1095 0001105  81.8281 278.2836 15.08835030 43705,6917.896,95.438,540.525,538.996,0.0
53871.0,STARLINK-4740,PAYLOAD,2023-06-25 23:15:18,15.08843953,0.0001213,53.2189,17.9166,97.5321,262.5809,1.2144e-05,-9.5e-07,0.0,0 STARLINK-4740,1 53871U 22114BF  23176.96896116 -.00000095  00000-0  12144-4 0  9990,2 53871  53.2189  17.9166 0001213  97.5321 262.5809 15.08843953 43744,6917.868,95.437,540.572,538.894,0.0
53871.0,STARLINK-4740,PAYLOAD,2023-06-26 16:44:33,15.08832622,0.0001133,53.2178,14.6491,90.0984,270.0138,3.5124e-06,-2.32e-06,0.0,0 STARLINK-4740,1 53871U 22114BF  23177.69760985 -.00000232  00000-0  35124-5 0  9992,2 53871  53.2178  14.6491 0001133  90.0984 270.0138 15.08832622 43853,6917.903,95.438,540.552,538.984,0.0
